GLOBALSTAR M068         
1 32266U 07048D   25355.75711439 -.00000082  00000+0  12096-3 0  9996
2 32266  51.9887  90.4733 0001528 160.8068   8.1507 12.62835650841259
GLOBALSTAR M079         
1 37188U 10054A   25355.83721522 -.00000077  00000+0  14835-3 0  9995
2 37188  52.0049 288.5509 0000764  33.3276   1.5390 12.62261616700151
GLOBALSTAR M074         
1 37189U 10054B   25355.25583273 -.00000080  00000+0  13359-3 0  9995
2 37189  52.0027 289.6140 0000818  58.2795  93.0418 12.62264226700688
GLOBALSTAR M076         
1 37190U 10054C   25355.28542971 -.00000082  00000+0  12110-3 0  9996
2 37190  52.0041 289.7131 0000909  48.5756 116.2728 12.62268281700404
GLOBALSTAR M077         
1 37191U 10054D   25355.47571109 -.00000088  00000+0 -18208-3 0  9994
2 37191  51.9979 270.6998 0001295  37.8339 133.0637 11.68176442700374
GLOBALSTAR M075         
1 37192U 10054E   25351.73634080 -.00000091  00000+0  72174-4 0  9994
2 37192  51.9972 342.6695 0000324  70.0279 101.0008 12.62270606699024
GLOBALSTAR M073         
1 37193U 10054F   25355.74535309 -.00000070  00000+0  18896-3 0  9991
2 37193  52.0053 244.4297 0001027  56.0526 339.1902 12.62268153701524
GLOBALSTAR M083         
1 37739U 11033A   25355.83248808 -.00000095  00000+0  51650-4 0  9993
2 37739  51.9832 192.6344 0001015  75.1000 298.2486 12.62265941670558
GLOBALSTAR M088         
1 37740U 11033B   25355.58919046 -.00000115  00000+0 -62125-4 0  9999
2 37740  52.0215  99.3710 0000852 122.5551 344.0146 12.62270966666060
GLOBALSTAR M091         
1 37741U 11033C   25355.50289267 -.00000098  00000+0  34419-4 0  9991
2 37741  52.0009  62.8633 0000495 139.2271 234.1979 12.62268179666840
GLOBALSTAR M085         
1 37742U 11033D   25355.76194197 -.00000099  00000+0  27039-4 0  9998
2 37742  52.0145  13.2113 0000055 146.0379  25.8050 12.62267416667380
GLOBALSTAR M081         
1 37743U 11033E   25351.59018587 -.00000087  00000+0  92331-4 0  9998
2 37743  51.9980  28.5496 0000222  94.7932  71.3857 12.62270971667009
GLOBALSTAR M089         
1 37744U 11033F   25355.87122144 -.00000088  00000+0  90095-4 0  9995
2 37744  51.9953 329.7087 0000666  69.9289 299.7825 12.62262580668394
GLOBALSTAR M084         
1 38040U 11080A   25355.74141991 -.00000099  00000+0  27213-4 0  9998
2 38040  51.9980 197.4920 0001370  83.4627 355.1728 12.62266771646357
GLOBALSTAR M080         
1 38041U 11080B   25355.79272902 -.00000090  00000+0  78049-4 0  9995
2 38041  52.0031 198.9926 0000720 102.4520 339.3691 12.62265128646483
GLOBALSTAR M082         
1 38042U 11080C   25355.71398465 -.00000123  00000+0 -10514-3 0  9991
2 38042  52.0051 154.7132 0000805 112.2170 261.2738 12.62266361647182
GLOBALSTAR M092         
1 38043U 11080D   25355.86027706 -.00000072  00000+0  17687-3 0  9995
2 38043  52.0075 244.6569 0000921  70.0132   8.2203 12.62268602645656
GLOBALSTAR M090         
1 38044U 11080E   25355.74067287 -.00000122  00000+0 -99957-4 0  9999
2 38044  52.0099 148.5310 0000893  95.6308 278.0818 12.62265540647306
GLOBALSTAR M086         
1 38045U 11080F   25355.62113521 -.00000113  00000+0 -50586-4 0  9995
2 38045  51.9877 149.1139 0001489  52.2804  28.1557 12.62281379647231
GLOBALSTAR M097         
1 39072U 13005A   25355.47329522 -.00000119  00000+0 -85118-4 0  9993
2 39072  52.0062  64.3116 0000435 109.7176 250.3738 12.62267592594460
GLOBALSTAR M093         
1 39073U 13005B   25355.60555597 -.00000091  00000+0  70263-4 0  9995
2 39073  52.0118  57.1895 0000195  93.3268 266.7621 12.62271138594430
GLOBALSTAR M094         
1 39074U 13005C   25355.68462258 -.00000107  00000+0 -20812-4 0  9999
2 39074  51.9980 331.2432 0000406  21.4244 338.6639 12.62265385596055
GLOBALSTAR M096         
1 39075U 13005D   25355.38092105 -.00000095  00000+0  47129-4 0  9992
2 39075  52.0090  20.8267 0000055  95.5406 264.5467 12.62269472594931
GLOBALSTAR M078         
1 39076U 13005E   25355.75082792 -.00000106  00000+0 -12083-4 0  9990
2 39076  51.9873 103.9575 0000785 183.7736 176.3125 12.62272508593608
GLOBALSTAR M095         
1 39077U 13005F   25355.61873657 -.00000112  00000+0 -46380-4 0  9998
2 39077  52.0076 101.7111 0000438 139.5748 220.5151 12.62267195593444
GLOBALSTAR M087         
1 52888U 22064A   25355.71098661 -.00000068  00000+0  19690-3 0  9995
2 52888  51.9987 242.7718 0000788  55.1800 304.9140 12.62261707168724
